NORAD_CAT_ID,OBJECT_NAME,OBJECT_TYPE,EPOCH,MEAN_MOTION,ECCENTRICITY,INCLINATION,RA_OF_ASC_NODE,ARG_OF_PERICENTER,MEAN_ANOMALY,BSTAR,MEAN_MOTION_DOT,MEAN_MOTION_DDOT,TLE_LINE0,TLE_LINE1,TLE_LINE2,SEMIMAJOR_AXIS,PERIOD,APOGEE,PERIGEE,DECAYED
53545.0,STARLINK-4475,PAYLOAD,2023-11-27 22:18:14,15.08840908,0.0001763,53.2183,202.5277,75.7857,284.3331,-4.5011e-05,-1.004e-05,0.0,0 STARLINK-4475,1 53545U 22101U   23331.92933420 -.00001004  00000-0 -45011-4 0  9994,2 53545  53.2183 202.5277 0001763  75.7857 284.3331 15.08840908 71271,6917.878,95.437,540.962,538.523,0.0
53545.0,STARLINK-4475,PAYLOAD,2023-11-28 01:29:00,15.08842606,0.0001667,53.2183,201.9303,86.4029,273.7154,-5.3743e-06,-3.74e-06,0.0,0 STARLINK-4475,1 53545U 22101U   23332.06181310 -.00000374  00000-0 -53743-5 0  9994,2 53545  53.2183 201.9303 0001667  86.4029 273.7154 15.08842606 70605,6917.872,95.437,540.891,538.584,0.0
53545.0,STARLINK-4475,PAYLOAD,2023-11-28 20:33:38,15.0885026,0.0001523,53.2172,198.3631,89.7763,270.3403,0.00049951,7.673e-05,0.0,0 STARLINK-4475,1 53545U 22101U   23332.85669219  .00007673  00000-0  49951-3 0  9991,2 53545  53.2172 198.3631 0001523  89.7763 270.3403 15.08850260 71413,6917.849,95.437,540.768,538.66,0.0
53545.0,STARLINK-4475,PAYLOAD,2023-11-29 01:19:47,15.08856213,0.0001565,53.2172,197.4708,92.8945,267.2226,0.00052732,8.118e-05,0.0,0 STARLINK-4475,1 53545U 22101U   23333.05540817  .00008118  00000-0  52732-3 0  9992,2 53545  53.2172 197.4708 0001565  92.8945 267.2226 15.08856213 70759,6917.831,95.437,540.778,538.613,0.0
53545.0,STARLINK-4475,PAYLOAD,2023-11-29 18:49:01,15.08845863,0.0001431,53.216,194.2019,85.9569,274.1587,-6.1335e-05,-1.264e-05,0.0,0 STARLINK-4475,1 53545U 22101U   23333.78404910 -.00001264  00000-0 -61335-4 0  9992,2 53545  53.2160 194.2019 0001431  85.9569 274.1587 15.08845863 70861,6917.862,95.437,540.717,538.738,0.0
53545.0,STARLINK-4475,PAYLOAD,2023-11-30 20:15:11,15.08841887,0.0001511,53.2161,189.4397,102.2636,257.8525,-0.00012405,-2.262e-05,0.0,0 STARLINK-4475,1 53545U 22101U   23334.84388879 -.00002262  00000-0 -12405-3 0  9997,2 53545  53.2161 189.4397 0001511 102.2636 257.8525 15.08841887 71025,6917.875,95.437,540.785,538.694,0.0
53545.0,STARLINK-4475,PAYLOAD,2023-12-01 21:41:22,15.08842944,0.0001862,53.2162,184.6844,64.5122,295.6063,0.0007583,0.00011802,0.0,0 STARLINK-4475,1 53545U 22101U   23335.90373597  .00011802  00000-0  75830-3 0  9995,2 53545  53.2162 184.6844 0001862  64.5122 295.6063 15.08842944 71874,6917.871,95.437,541.024,538.448,0.0
53545.0,STARLINK-4475,PAYLOAD,2023-12-02 19:56:45,15.08846338,0.0001422,53.2153,180.5235,78.1328,281.9824,0.00014954,2.093e-05,0.0,0 STARLINK-4475,1 53545U 22101U   23336.83108610  .00002093  00000-0  14954-3 0  9992,2 53545  53.2153 180.5235 0001422  78.1328 281.9824 15.08846338 71328,6917.861,95.437,540.71,538.742,0.0
53545.0,STARLINK-4475,PAYLOAD,2023-12-02 21:32:09,15.0884796,0.0001482,53.216,180.2258,73.9514,286.1641,0.00016885,2.401e-05,0.0,0 STARLINK-4475,1 53545U 22101U   23336.89732696  .00002401  00000-0  16885-3 0  9993,2 53545  53.2160 180.2258 0001482  73.9514 286.1641 15.08847960 72028,6917.856,95.437,540.746,538.696,0.0
53545.0,STARLINK-4475,PAYLOAD,2023-12-03 13:26:00,15.0883503,0.000132,53.2163,177.2564,92.5785,267.5358,-5.6686e-05,-1.19e-05,0.0,0 STARLINK-4475,1 53545U 22101U   23337.55973085 -.00001190  00000-0 -56686-4 0  9996,2 53545  53.2163 177.2564 0001320  92.5785 267.5358 15.08835030 72129,6917.896,95.438,540.674,538.847,0.0
53545.0,STARLINK-4475,PAYLOAD,2023-12-03 19:47:33,15.08833843,0.0001458,53.2165,176.0633,83.8685,276.2473,-0.00011269,-2.081e-05,0.0,0 STARLINK-4475,1 53545U 22101U   23337.82469398 -.00002081  00000-0 -11269-3 0  9990,2 53545  53.2165 176.0633 0001458  83.8685 276.2473 15.08833843 71471,6917.899,95.438,540.773,538.756,0.0
53545.0,STARLINK-4475,PAYLOAD,2023-12-04 22:49:07,15.08831819,0.0001259,53.2158,171.0073,97.3419,262.7716,0.00011906,1.607e-05,0.0,0 STARLINK-4475,1 53545U 22101U   23338.95078261  .00001607  00000-0  11906-3 0  9999,2 53545  53.2158 171.0073 0001259  97.3419 262.7716 15.08831819 71640,6917.905,95.438,540.641,538.899,0.0
53545.0,STARLINK-4475,PAYLOAD,2023-12-05 13:07:35,15.08837223,0.0001256,53.2155,168.3315,97.5953,262.5182,0.00023123,3.394e-05,0.0,0 STARLINK-4475,1 53545U 22101U   23339.54694259  .00003394  00000-0  23123-3 0  9995,2 53545  53.2155 168.3315 0001256  97.5953 262.5182 15.08837223 72424,6917.889,95.438,540.623,538.885,0.0
53545.0,STARLINK-4475,PAYLOAD,2023-12-06 12:58:22,15.08846053,0.0001339,53.2164,163.8718,87.355,272.7595,0.00020855,3.033e-05,0.0,0 STARLINK-4475,1 53545U 22101U   23340.54053845  .00003033  00000-0  20855-3 0  9996,2 53545  53.2164 163.8718 0001339  87.3550 272.7595 15.08846053 72571,6917.862,95.437,540.653,538.801,0.0
53545.0,STARLINK-4475,PAYLOAD,2023-12-08 11:04:34,15.08822029,0.0001428,53.2163,155.249,93.7419,266.3737,-0.00015637,-2.774e-05,0.0,0 STARLINK-4475,1 53545U 22101U   23342.46151559 -.00002774  00000-0 -15637-3 0  9995,2 53545  53.2163 155.2490 0001428  93.7419 266.3737 15.08822029 72176,6917.935,95.439,540.788,538.812,0.0
53545.0,STARLINK-4475,PAYLOAD,2023-12-08 14:15:21,15.08831399,0.0001395,53.2171,154.6544,70.7694,289.3449,0.00024007,3.534e-05,0.0,0 STARLINK-4475,1 53545U 22101U   23342.59399661  .00003534  00000-0  24007-3 0  9991,2 53545  53.2171 154.6544 0001395  70.7694 289.3449 15.08831399 72884,6917.907,95.438,540.737,538.807,0.0
53545.0,STARLINK-4475,PAYLOAD,2023-12-08 19:01:30,15.08835803,0.0001421,53.2157,153.762,72.1918,287.9229,0.00029219,4.365e-05,0.0,0 STARLINK-4475,1 53545U 22101U   23342.79271740  .00004365  00000-0  29219-3 0  9993,2 53545  53.2157 153.7620 0001421  72.1918 287.9229 15.08835803 72220,6917.893,95.438,540.741,538.775,0.0
53545.0,STARLINK-4475,PAYLOAD,2023-12-08 20:36:53,15.08837881,0.0001422,53.2157,153.4647,73.0211,287.0937,0.00032138,4.83e-05,0.0,0 STARLINK-4475,1 53545U 22101U   23342.85895699  .00004830  00000-0  32138-3 0  9996,2 53545  53.2157 153.4647 0001422  73.0211 287.0937 15.08837881 72925,6917.887,95.438,540.736,538.768,0.0
53545.0,STARLINK-4475,PAYLOAD,2023-12-09 14:06:08,15.08849729,0.0001426,53.2153,150.1936,72.4756,287.6392,0.00026123,3.873e-05,0.0,0 STARLINK-4475,1 53545U 22101U   23343.58759310  .00003873  00000-0  26123-3 0  9999,2 53545  53.2153 150.1936 0001426  72.4756 287.6392 15.08849729 73035,6917.851,95.437,540.702,538.729,0.0
53545.0,STARLINK-4475,PAYLOAD,2023-12-09 22:03:03,15.08852188,0.0001443,53.2152,148.7068,72.1431,287.9718,0.00026163,3.88e-05,0.0,0 STARLINK-4475,1 53545U 22101U   23343.91879053  .00003880  00000-0  26163-3 0  9995,2 53545  53.2152 148.7068 0001443  72.1431 287.9718 15.08852188 73082,6917.843,95.437,540.706,538.71,0.0
53545.0,STARLINK-4475,PAYLOAD,2023-12-10 13:56:54,15.08858796,0.0001454,53.2152,145.733,72.0064,288.1087,0.00030004,4.493e-05,0.0,0 STARLINK-4475,1 53545U 22101U   23344.58118341  .00004493  00000-0  30004-3 0  9995,2 53545  53.2152 145.7330 0001454  72.0064 288.1087 15.08858796 73188,6917.823,95.436,540.694,538.682,0.0
53545.0,STARLINK-4475,PAYLOAD,2023-12-10 21:53:49,15.08862299,0.0001471,53.2152,144.2462,71.567,288.5482,0.00031168,4.679e-05,0.0,0 STARLINK-4475,1 53545U 22101U   23344.91237836  .00004679  00000-0  31168-3 0  9991,2 53545  53.2152 144.2462 0001471  71.5670 288.5482 15.08862299 73236,6917.812,95.436,540.695,538.66,0.0
53545.0,STARLINK-4475,PAYLOAD,2023-12-10 23:29:12,15.08863214,0.000147,53.2152,143.9489,71.4899,288.6253,0.00031705,4.765e-05,0.0,0 STARLINK-4475,1 53545U 22101U   23344.97861721  .00004765  00000-0  31705-3 0  9996,2 53545  53.2152 143.9489 0001470  71.4899 288.6253 15.08863214 72551,6917.809,95.436,540.691,538.658,0.0
53545.0,STARLINK-4475,PAYLOAD,2023-12-11 10:36:54,15.08847051,0.0001488,53.2152,141.8673,71.003,289.1124,-1.0032e-05,-4.48e-06,0.0,0 STARLINK-4475,1 53545U 22101U   23345.44230062 -.00000448  00000-0 -10032-4 0  9994,2 53545  53.2152 141.8673 0001488  71.0030 289.1124 15.08847051 72627,6917.859,95.437,540.753,538.694,0.0
53545.0,STARLINK-4475,PAYLOAD,2023-12-11 13:47:41,15.08846269,0.0001476,53.2158,141.2727,72.1897,287.9256,5.2197e-06,-2.05e-06,0.0,0 STARLINK-4475,1 53545U 22101U   23345.57478160 -.00000205  00000-0  52197-5 0  9990,2 53545  53.2158 141.2727 0001476  72.1897 287.9256 15.08846269 73338,6917.861,95.437,540.747,538.705,0.0
53545.0,STARLINK-4475,PAYLOAD,2023-12-11 21:44:36,15.0884906,0.0001454,53.2169,139.786,74.4208,285.6945,2.3008e-05,7.8e-07,0.0,0 STARLINK-4475,1 53545U 22101U   23345.90597909  .00000078  00000-0  23008-4 0  9995,2 53545  53.2169 139.7860 0001454  74.4208 285.6945 15.08849060 73384,6917.853,95.437,540.724,538.712,0.0
53545.0,STARLINK-4475,PAYLOAD,2023-12-12 13:38:28,15.08845452,0.0001406,53.2171,136.8123,78.8616,281.2534,-4.7308e-05,-1.041e-05,0.0,0 STARLINK-4475,1 53545U 22101U   23346.56838053 -.00001041  00000-0 -47308-4 0  9998,2 53545  53.2171 136.8123 0001406  78.8616 281.2534 15.08845452 73483,6917.864,95.437,540.701,538.756,0.0
53545.0,STARLINK-4475,PAYLOAD,2023-12-12 16:49:14,15.08846195,0.00014,53.217,136.2175,79.074,281.041,-4.2791e-05,-9.69e-06,0.0,0 STARLINK-4475,1 53545U 22101U   23346.70085920 -.00000969  00000-0 -42791-4 0  9990,2 53545  53.2170 136.2175 0001400  79.0740 281.0410 15.08846195 72810,6917.861,95.437,540.695,538.758,0.0
53545.0,STARLINK-4475,PAYLOAD,2023-12-13 13:29:14,15.08840438,0.0001385,53.2172,132.3518,82.8611,277.2538,5.5588e-05,5.97e-06,0.0,0 STARLINK-4475,1 53545U 22101U   23347.56197868  .00000597  00000-0  55588-4 0  9993,2 53545  53.2172 132.3518 0001385  82.8611 277.2538 15.08840438 73634,6917.879,95.438,540.702,538.786,0.0
53545.0,STARLINK-4475,PAYLOAD,2023-12-13 16:40:01,15.08840895,0.0001373,53.2173,131.7569,83.3444,276.7704,5.3352e-05,5.61e-06,0.0,0 STARLINK-4475,1 53545U 22101U   23347.69445826  .00000561  00000-0  53352-4 0  9995,2 53545  53.2173 131.7569 0001373  83.3444 276.7704 15.08840895 73659,6917.878,95.437,540.692,538.793,0.0
